{
    "links": {
        "self": "http://www.neowsapp.com/rest/v1/neo/3781416?api_key=iIulBulltgU6a56xZRHN4H3l9WmuAYTsLGpBGhQ2"
    },
    "id": "3781416",
    "neo_reference_id": "3781416",
    "name": "(2017 RJ2)",
    "designation": "2017 RJ2",
    "nasa_jpl_url": "http://ssd.jpl.nasa.gov/sbdb.cgi?sstr=3781416",
    "absolute_magnitude_h": 27.6,
    "estimated_diameter": {
        "kilometers": {
            "estimated_diameter_min": 0.0080270317,
            "estimated_diameter_max": 0.0179489885
        },
        "meters": {
            "estimated_diameter_min": 8.0270316728,
            "estimated_diameter_max": 17.948988478
        },
        "miles": {
            "estimated_diameter_min": 0.0049877647,
            "estimated_diameter_max": 0.0111529809
        },
        "feet": {
            "estimated_diameter_min": 26.3354065935,
            "estimated_diameter_max": 58.8877593581
        }
    },
    "is_potentially_hazardous_asteroid": false,
    "close_approach_data": [
        {
            "close_approach_date": "2014-11-20",
            "close_approach_date_full": "2014-Nov-20 09:42",
            "epoch_date_close_approach": 1416476520000,
            "relative_velocity": {
                "kilometers_per_second": "16.5297526969",
                "kilometers_per_hour": "59507.1097088666",
                "miles_per_hour": "36975.4038077122"
            },
            "miss_distance": {
                "astronomical": "0.0667528489",
                "lunar": "25.9668582221",
                "kilometers": "9986084.011871843",
                "miles": "6205064.8722957134"
            },
            "orbiting_body": "Mars"
        },
        {
            "close_approach_date": "2017-09-15",
            "close_approach_date_full": "2017-Sep-15 22:29",
            "epoch_date_close_approach": 1505514540000,
            "relative_velocity": {
                "kilometers_per_second": "15.8701611829",
                "kilometers_per_hour": "57132.5802585646",
                "miles_per_hour": "35499.9635501064"
            },
            "miss_distance": {
                "astronomical": "0.0036795287",
                "lunar": "1.4313366643",
                "kilometers": "550449.656123869",
                "miles": "342033.5560086322"
            },
            "orbiting_body": "Earth"
        },
        {
            "close_approach_date": "2017-09-16",
            "close_approach_date_full": "2017-Sep-16 04:05",
            "epoch_date_close_approach": 1505534700000,
            "relative_velocity": {
                "kilometers_per_second": "15.1846520446",
                "kilometers_per_hour": "54664.7473607314",
                "miles_per_hour": "33966.5481586722"
            },
            "miss_distance": {
                "astronomical": "0.005160215",
                "lunar": "2.007323635",
                "kilometers": "771957.17274205",
                "miles": "479671.94445829"
            },
            "orbiting_body": "Moon"
        },
        {
            "close_approach_date": "2073-02-16",
            "close_approach_date_full": "2073-Feb-16 13:16",
            "epoch_date_close_approach": 3254476560000,
            "relative_velocity": {
                "kilometers_per_second": "21.9660716746",
                "kilometers_per_hour": "79077.8580285265",
                "miles_per_hour": "49135.9057288919"
            },
            "miss_distance": {
                "astronomical": "0.2007193335",
                "lunar": "78.0798207315",
                "kilometers": "30027184.759419645",
                "miles": "18658027.425275301"
            },
            "orbiting_body": "Earth"
        },
        {
            "close_approach_date": "2178-02-07",
            "close_approach_date_full": "2178-Feb-07 10:50",
            "epoch_date_close_approach": 6567130200000,
            "relative_velocity": {
                "kilometers_per_second": "16.445118462",
                "kilometers_per_hour": "59202.4264631248",
                "miles_per_hour": "36786.085487601"
            },
            "miss_distance": {
                "astronomical": "0.0251962491",
                "lunar": "9.8013408999",
                "kilometers": "3769305.197349417",
                "miles": "2342137.6432672746"
            },
            "orbiting_body": "Earth"
        }
    ],
    "orbital_data": {
        "orbit_id": "1",
        "orbit_determination_date": "2017-09-17 09:42:09",
        "first_observation_date": "2017-09-12",
        "last_observation_date": "2017-09-15",
        "data_arc_in_days": 3,
        "observations_used": 26,
        "orbit_uncertainty": "8",
        "minimum_orbit_intersection": ".00185805",
        "jupiter_tisserand_invariant": "3.630",
        "epoch_osculation": "2458009.5",
        "eccentricity": ".6213489083557296",
        "semi_major_axis": "1.947776838723087",
        "inclination": "1.488604467622272",
        "ascending_node_longitude": "176.8478569237992",
        "orbital_period": "992.9039142403344",
        "perihelion_distance": ".7375278262619229",
        "perihelion_argument": "248.1781794284558",
        "aphelion_distance": "3.158025851184251",
        "perihelion_time": "2458057.945813061644",
        "mean_anomaly": "342.4348635834158",
        "mean_motion": ".3625728480237024",
        "equinox": "J2000",
        "orbit_class": {
            "orbit_class_type": "APO",
            "orbit_class_description": "Near-Earth asteroid orbits which cross the Earth’s orbit similar to that of 1862 Apollo",
            "orbit_class_range": "a (semi-major axis) > 1.0 AU; q (perihelion) < 1.017 AU"
        }
    },
    "is_sentry_object": false
}